{
  "norad_id": 63157,
  "name": "TJS-15",
  "history": [
    {
      "epoch": "2026-03-28T16:34:58.186272Z",
      "apogee_km": 35815.0050966042,
      "perigee_km": 35758.36087743363,
      "latitude_deg": 0.2268866079255833,
      "longitude_deg": 94.40684864037607,
      "height_km": 35813.870861212046,
      "semi_major_axis_km": 42164.81998701892,
      "eccentricity": 0.0006717,
      "inclination_deg": 0.2341,
      "raan_deg": 85.3007,
      "arg_perigee_deg": 276.9398,
      "mean_anomaly_deg": 166.9761,
      "mean_motion_rev_day": 1.00271471
    }
  ]
}