{"fetched_at":"2026-03-29T02:12:04Z","count":15717,"tles":[{"name":"TJS-15","line1":"1 63157U 25045A   26087.69095123 -.00000284  00000+0  00000+0 0  9999","line2":"2 63157   0.2341  85.3007 0006717 276.9398 166.9761  1.00271471  3958","category":"Other"}]}